0 SL-16 DEB
1 22353U 92093AS  13283.78761197  .00000824  00000-0  50912-3 0  4338
2 22353 070.9686 145.1235 0122934 333.5883 100.5215 14.04612143 60015
0 SL-16 DEB
1 22353U 92093AS  13285.85778284  .00000706  00000-0  43998-3 0  4349
2 22353 070.9685 140.8424 0122997 330.5621 128.5018 14.04615890 60307
0 SL-16 DEB
1 22353U 92093AS  13287.99635498  .00000722  00000-0  44972-3 0  4357
2 22353 070.9682 136.4194 0123039 327.4291 142.3922 14.04622217 60607
0 SL-16 DEB
1 22353U 92093AS  13290.33449615  .00000490  00000-0  31384-3 0  4369
2 22353 070.9681 131.5835 0123100 323.9938 085.4883 14.04626480 60937
0 SL-16 DEB
1 22353U 92093AS  13292.83866529  .00000741  00000-0  46062-3 0  4372
2 22353 070.9682 126.4041 0123166 320.3076 148.1806 14.04627745 61282
0 SL-16 DEB
1 22353U 92093AS  13295.52916465  .00001079  00000-0  65766-3 0  4384
2 22353 070.9684 120.8395 0123278 316.3337 073.1130 14.04630861 61665
